{"fetched_at":"2026-07-15T17:46:44.919Z","source":"https://celestrak.org/NORAD/elements/gp.php?GROUP=kuiper&FORMAT=JSON","constellation":"kuiper","records":[{"OBJECT_NAME":"KUIPER-00357","OBJECT_ID":"2026-095C","EPOCH":"2026-07-15T03:57:03.935232","CLASSIFICATION_TYPE":"U","MEAN_MOTION":14.7992588,"ECCENTRICITY":0.000118,"INCLINATION":51.9023,"RA_OF_ASC_NODE":119.444,"ARG_OF_PERICENTER":87.0801,"MEAN_ANOMALY":273.0296,"EPHEMERIS_TYPE":0,"NORAD_CAT_ID":68866,"ELEMENT_SET_NO":999,"REV_AT_EPOCH":1186,"BSTAR":0.00026597,"MEAN_MOTION_DOT":0.00001806,"MEAN_MOTION_DDOT":0},{"OBJECT_NAME":"KUIPER-00364","OBJECT_ID":"2026-095D","EPOCH":"2026-07-15T04:41:48.206112","CLASSIFICATION_TYPE":"U","MEAN_MOTION":14.79908075,"ECCENTRICITY":0.0001299,"INCLINATION":51.9042,"RA_OF_ASC_NODE":121.8148,"ARG_OF_PERICENTER":154.9346,"MEAN_ANOMALY":205.1679,"EPHEMERIS_TYPE":0,"NORAD_CAT_ID":68867,"ELEMENT_SET_NO":999,"REV_AT_EPOCH":1183,"BSTAR":0.0002538,"MEAN_MOTION_DOT":0.00001713,"MEAN_MOTION_DDOT":0},{"OBJECT_NAME":"KUIPER-00375","OBJECT_ID":"2026-095E","EPOCH":"2026-07-15T04:00:03.000096","CLASSIFICATION_TYPE":"U","MEAN_MOTION":14.76917593,"ECCENTRICITY":0.0004285,"INCLINATION":51.9017,"RA_OF_ASC_NODE":113.7835,"ARG_OF_PERICENTER":132.0736,"MEAN_ANOMALY":188.3085,"EPHEMERIS_TYPE":0,"NORAD_CAT_ID":68868,"ELEMENT_SET_NO":999,"REV_AT_EPOCH":583,"BSTAR":-0.0036073,"MEAN_MOTION_DOT":-0.00025729,"MEAN_MOTION_DDOT":0},{"OBJECT_NAME":"KUIPER-00433","OBJECT_ID":"2026-095F","EPOCH":"2026-07-15T00:27:30.762720","CLASSIFICATION_TYPE":"U","MEAN_MOTION":14.79955166,"ECCENTRICITY":0.0001033,"INCLINATION":51.9,"RA_OF_ASC_NODE":130.0869,"ARG_OF_PERICENTER":85.3969,"MEAN_ANOMALY":274.7111,"EPHEMERIS_TYPE":0,"NORAD_CAT_ID":68869,"ELEMENT_SET_NO":999,"REV_AT_EPOCH":1170,"BSTAR":0.0002269,"MEAN_MOTION_DOT":0.0000151,"MEAN_MOTION_DDOT":0},{"OBJECT_NAME":"KUIPER-00437","OBJECT_ID":"2026-095G","EPOCH":"2026-07-15T03:47:43.541376","CLASSIFICATION_TYPE":"U","MEAN_MOTION":15.38619418,"ECCENTRICITY":0.0008325,"INCLINATION":51.8787,"RA_OF_ASC_NODE":107.0407,"ARG_OF_PERICENTER":49.5197,"MEAN_ANOMALY":310.6514,"EPHEMERIS_TYPE":0,"NORAD_CAT_ID":68870,"ELEMENT_SET_NO":999,"REV_AT_EPOCH":1203,"BSTAR":0.0004445,"MEAN_MOTION_DOT":0.00016879,"MEAN_MOTION_DDOT":0},{"OBJECT_NAME":"KUIPER-00448","OBJECT_ID":"2026-095H","EPOCH":"2026-07-15T04:00:08.833824","CLASSIFICATION_TYPE":"U","MEAN_MOTION":14.7643152,"ECCENTRICITY":0.0001467,"INCLINATION":51.9039,"RA_OF_ASC_NODE":117.7022,"ARG_OF_PERICENTER":166.7653,"MEAN_ANOMALY":193.3347,"EPHEMERIS_TYPE":0,"NORAD_CAT_ID":68871,"ELEMENT_SET_NO":999,"REV_AT_EPOCH":1188,"BSTAR":0.00017868,"MEAN_MOTION_DOT":0.0000104,"MEAN_MOTION_DDOT":0},{"OBJECT_NAME":"KUIPER-00459","OBJECT_ID":"2026-095J","EPOCH":"2026-07-15T04:00:03.000096","CLASSIFICATION_TYPE":"U","MEAN_MOTION":15.14202855,"ECCENTRICITY":0.0009521,"INCLINATION":51.8816,"RA_OF_ASC_NODE":108.9148,"ARG_OF_PERICENTER":50.4259,"MEAN_ANOMALY":60.8453,"EPHEMERIS_TYPE":0,"NORAD_CAT_ID":68872,"ELEMENT_SET_NO":999,"REV_AT_EPOCH":334,"BSTAR":-0.09892,"MEAN_MOTION_DOT":-0.01656797,"MEAN_MOTION_DDOT":0},{"OBJECT_NAME":"KUIPER-00468","OBJECT_ID":"2026-095K","EPOCH":"2026-07-15T04:00:03.000096","CLASSIFICATION_TYPE":"U","MEAN_MOTION":15.22041554,"ECCENTRICITY":0.0005279,"INCLINATION":51.887,"RA_OF_ASC_NODE":107.6247,"ARG_OF_PERICENTER":15.0174,"MEAN_ANOMALY":108.2115,"EPHEMERIS_TYPE":0,"NORAD_CAT_ID":68873,"ELEMENT_SET_NO":999,"REV_AT_EPOCH":261,"BSTAR":-0.10772,"MEAN_MOTION_DOT":-0.02228925,"MEAN_MOTION_DDOT":0},{"OBJECT_NAME":"KUIPER-00476","OBJECT_ID":"2026-095L","EPOCH":"2026-07-15T03:10:43.527936","CLASSIFICATION_TYPE":"U","MEAN_MOTION":15.33462743,"ECCENTRICITY":0.0009679,"INCLINATION":51.8724,"RA_OF_ASC_NODE":108.298,"ARG_OF_PERICENTER":43.0541,"MEAN_ANOMALY":317.12,"EPHEMERIS_TYPE":0,"NORAD_CAT_ID":68874,"ELEMENT_SET_NO":999,"REV_AT_EPOCH":1201,"BSTAR":-0.0018545,"MEAN_MOTION_DOT":-0.00060871,"MEAN_MOTION_DDOT":0},{"OBJECT_NAME":"KUIPER-00478","OBJECT_ID":"2026-095M","EPOCH":"2026-07-15T04:00:03.000096","CLASSIFICATION_TYPE":"U","MEAN_MOTION":14.96897773,"ECCENTRICITY":0.0005194,"INCLINATION":51.8921,"RA_OF_ASC_NODE":109.7843,"ARG_OF_PERICENTER":51.5704,"MEAN_ANOMALY":74.2337,"EPHEMERIS_TYPE":0,"NORAD_CAT_ID":68875,"ELEMENT_SET_NO":999,"REV_AT_EPOCH":479,"BSTAR":0.00090198,"MEAN_MOTION_DOT":0.00010222,"MEAN_MOTION_DDOT":0},{"OBJECT_NAME":"KUIPER-00480","OBJECT_ID":"2026-095N","EPOCH":"2026-07-15T04:00:03.000096","CLASSIFICATION_TYPE":"U","MEAN_MOTION":15.12741315,"ECCENTRICITY":0.0006249,"INCLINATION":51.8825,"RA_OF_ASC_NODE":108.1612,"ARG_OF_PERICENTER":23.1114,"MEAN_ANOMALY":176.2022,"EPHEMERIS_TYPE":0,"NORAD_CAT_ID":68876,"ELEMENT_SET_NO":999,"REV_AT_EPOCH":273,"BSTAR":-0.11067,"MEAN_MOTION_DOT":-0.01791319,"MEAN_MOTION_DDOT":0},{"OBJECT_NAME":"KUIPER-00482","OBJECT_ID":"2026-095P","EPOCH":"2026-07-15T04:15:07.369632","CLASSIFICATION_TYPE":"U","MEAN_MOTION":14.76418785,"ECCENTRICITY":0.000074,"INCLINATION":51.9018,"RA_OF_ASC_NODE":116.6384,"ARG_OF_PERICENTER":240.9777,"MEAN_ANOMALY":119.111,"EPHEMERIS_TYPE":0,"NORAD_CAT_ID":68877,"ELEMENT_SET_NO":999,"REV_AT_EPOCH":1190,"BSTAR":0.00017079,"MEAN_MOTION_DOT":0.00000984,"MEAN_MOTION_DDOT":0},{"OBJECT_NAME":"KUIPER-00483","OBJECT_ID":"2026-095Q","EPOCH":"2026-07-15T03:59:08.237184","CLASSIFICATION_TYPE":"U","MEAN_MOTION":14.76519421,"ECCENTRICITY":0.0001306,"INCLINATION":51.899,"RA_OF_ASC_NODE":129.1893,"ARG_OF_PERICENTER":246.1383,"MEAN_ANOMALY":113.9441,"EPHEMERIS_TYPE":0,"NORAD_CAT_ID":68878,"ELEMENT_SET_NO":999,"REV_AT_EPOCH":1172,"BSTAR":0.00016113,"MEAN_MOTION_DOT":0.00000919,"MEAN_MOTION_DDOT":0},{"OBJECT_NAME":"KUIPER-00488","OBJECT_ID":"2026-095R","EPOCH":"2026-07-15T04:00:03.000096","CLASSIFICATION_TYPE":"U","MEAN_MOTION":14.85029782,"ECCENTRICITY":0.0012373,"INCLINATION":51.8996,"RA_OF_ASC_NODE":112.0479,"ARG_OF_PERICENTER":81.7846,"MEAN_ANOMALY":197.7538,"EPHEMERIS_TYPE":0,"NORAD_CAT_ID":68879,"ELEMENT_SET_NO":999,"REV_AT_EPOCH":521,"BSTAR":-0.0014059,"MEAN_MOTION_DOT":-0.00012347,"MEAN_MOTION_DDOT":0},{"OBJECT_NAME":"KUIPER-00489","OBJECT_ID":"2026-095S","EPOCH":"2026-07-15T04:00:03.000096","CLASSIFICATION_TYPE":"U","MEAN_MOTION":15.30852625,"ECCENTRICITY":0.001295,"INCLINATION":51.8775,"RA_OF_ASC_NODE":108.2986,"ARG_OF_PERICENTER":46.0239,"MEAN_ANOMALY":68.277,"EPHEMERIS_TYPE":0,"NORAD_CAT_ID":68880,"ELEMENT_SET_NO":999,"REV_AT_EPOCH":591,"BSTAR":-0.041995,"MEAN_MOTION_DOT":-0.0116144,"MEAN_MOTION_DDOT":0},{"OBJECT_NAME":"KUIPER-00499","OBJECT_ID":"2026-095T","EPOCH":"2026-07-15T04:00:03.000096","CLASSIFICATION_TYPE":"U","MEAN_MOTION":15.00324504,"ECCENTRICITY":0.00074,"INCLINATION":51.8888,"RA_OF_ASC_NODE":110.4718,"ARG_OF_PERICENTER":57.0199,"MEAN_ANOMALY":332.1055,"EPHEMERIS_TYPE":0,"NORAD_CAT_ID":68881,"ELEMENT_SET_NO":999,"REV_AT_EPOCH":289,"BSTAR":0.0013891,"MEAN_MOTION_DOT":0.00017399,"MEAN_MOTION_DDOT":0}]}
