KUIPER-00357            
1 68866U 26095C   26196.16462888  .00001806  00000+0  26597-3 0  9999
2 68866  51.9023 119.4440 0001180  87.0801 273.0296 14.79925880 11861
KUIPER-00364            
1 68867U 26095D   26196.19569683  .00001713  00000+0  25380-3 0  9990
2 68867  51.9042 121.8148 0001299 154.9346 205.1679 14.79908075 11839
KUIPER-00375            
1 68868U 26095E   26196.16670139 -.00025729  00000+0 -36073-2 0  9992
2 68868  51.9017 113.7835 0004285 132.0736 188.3085 14.76917593  5831
KUIPER-00433            
1 68869U 26095F   26196.01910605  .00001510  00000+0  22690-3 0  9993
2 68869  51.9000 130.0869 0001033  85.3969 274.7111 14.79955166 11703
KUIPER-00437            
1 68870U 26095G   26196.15814284  .00016879  00000+0  44450-3 0  9998
2 68870  51.8787 107.0407 0008325  49.5197 310.6514 15.38619418 12031
KUIPER-00448            
1 68871U 26095H   26196.16676891  .00001040  00000+0  17868-3 0  9997
2 68871  51.9039 117.7022 0001467 166.7653 193.3347 14.76431520 11882
KUIPER-00459            
1 68872U 26095J   26196.16670139 -.01656797  00000+0 -98920-1 0  9991
2 68872  51.8816 108.9148 0009521  50.4259  60.8453 15.14202855  3344
KUIPER-00468            
1 68873U 26095K   26196.16670139 -.02228925  00000+0 -10772+0 0  9998
2 68873  51.8870 107.6247 0005279  15.0174 108.2115 15.22041554  2617
KUIPER-00476            
1 68874U 26095L   26196.13244824 -.00060871  00000+0 -18545-2 0  9995
2 68874  51.8724 108.2980 0009679  43.0541 317.1200 15.33462743 12014
KUIPER-00478            
1 68875U 26095M   26196.16670139  .00010222  00000+0  90198-3 0  9999
2 68875  51.8921 109.7843 0005194  51.5704  74.2337 14.96897773  4792
KUIPER-00480            
1 68876U 26095N   26196.16670139 -.01791319  00000+0 -11067+0 0  9990
2 68876  51.8825 108.1612 0006249  23.1114 176.2022 15.12741315  2730
KUIPER-00482            
1 68877U 26095P   26196.17716863  .00000984  00000+0  17079-3 0  9998
2 68877  51.9018 116.6384 0000740 240.9777 119.1110 14.76418785 11904
KUIPER-00483            
1 68878U 26095Q   26196.16606756  .00000919  00000+0  16113-3 0  9993
2 68878  51.8990 129.1893 0001306 246.1383 113.9441 14.76519421 11725
KUIPER-00488            
1 68879U 26095R   26196.16670139 -.00012347  00000+0 -14059-2 0  9996
2 68879  51.8996 112.0479 0012373  81.7846 197.7538 14.85029782  5216
KUIPER-00489            
1 68880U 26095S   26196.16670139 -.01161440  00000+0 -41995-1 0  9996
2 68880  51.8775 108.2986 0012950  46.0239  68.2770 15.30852625  5912
KUIPER-00499            
1 68881U 26095T   26196.16670139  .00017399  00000+0  13891-2 0  9992
2 68881  51.8888 110.4718 0007400  57.0199 332.1055 15.00324504  2897
